[
  {
    "tle1": "1 90001U SGP4-VAL 93051.47568104 +.00000184  00000 0  00000 0 0 0814",
    "tle2": "2 90001   0.0221 182.4922 0000720  45.6036 131.8822  1.0027132801199",
    "results": [
      {
        "time": 0,
        "position": {
          "x": 42166.3724464,
          "y": 12.9531592,
          "z": -9.8621994
        },
        "velocity": {
          "x": -0.0007811,
          "y": 3.0745638,
          "z": -0.0017028
        }
      },
      {
        "time": 2700,
        "position": {
          "x": 30767.5128077,
          "y": -28829.9475673,
          "z": 11.4616939
        },
        "velocity": {
          "x": 2.1025258,
          "y": 2.2435062,
          "z": -0.0017973
        }
      },
      {
        "time": 5400,
        "position": {
          "x": 2726.5679534,
          "y": -42073.4606119,
          "z": 26.2528826
        },
        "velocity": {
          "x": 3.0684586,
          "y": 0.1986925,
          "z": -0.0006261
        }
      }
    ]
  }
]
